[
    {
        "OBJECT_NAME": "SHENZHOU-23 (SZ-23)",
        "OBJECT_ID": "2026-113A",
        "EPOCH": "2026-06-06T16:10:17.689440",
        "MEAN_MOTION": 15.60361832,
        "ECCENTRICITY": 0.00091504,
        "INCLINATION": 41.4692,
        "RA_OF_ASC_NODE": 25.9625,
        "ARG_OF_PERICENTER": 355.7318,
        "MEAN_ANOMALY": 4.3441,
        "EPHEMERIS_TYPE": 0,
        "CLASSIFICATION_TYPE": "U",
        "NORAD_CAT_ID": 69180,
        "ELEMENT_SET_NO": 999,
        "REV_AT_EPOCH": 29125,
        "BSTAR": 0.0003421058,
        "MEAN_MOTION_DOT": 0.00028669,
        "MEAN_MOTION_DDOT": 0
    }
]