SHENZHOU-23 (SZ-23)     
1 69180U 26113A   26157.67381585  .00028669  00000+0  34211-3 0  9995
2 69180  41.4692  25.9625 0009150 355.7318   4.3441 15.60361832291258
